H1 CPF 01  gfz 2022 05 03 12  6232 terrasarx 
H2 0702601  6201 31698    2022 05 03 12 59 42 2022 05 08 00 00 42   120 1 1  0 0 0
H9
10 0 59703  76302.000000  0    3551619.796  -2884788.571  -5157379.439
10 0 59703  76422.000000  0    3896064.213  -3451951.682  -4520403.765
10 0 59703  76542.000000  0    4163317.360  -3964445.379  -3804269.992
10 0 59703  76662.000000  0    4349701.264  -4411901.334  -3021446.846
10 0 59703  76782.000000  0    4453111.474  -4785016.689  -2185602.303
10 0 59703  76902.000000  0    4473042.762  -5075752.928  -1311368.005
10 0 59703  77022.000000  0    4410582.055  -5277513.973   -414081.637
10 0 59703  77142.000000  0    4268369.097  -5385297.129    490487.074
10 0 59703  77262.000000  0    4050525.559  -5395814.202   1386420.570
10 0 59703  77382.000000  0    3762553.637  -5307578.035   2257943.311
10 0 59703  77502.000000  0    3411205.771  -5120951.969   3089707.864
10 0 59703  77622.000000  0    3004330.736  -4838162.995   3867072.350
10 0 59703  77742.000000  0    2550699.357  -4463276.105   4576363.367
10 0 59703  77862.000000  0    2059814.918  -4002132.030   5205119.023
10 0 59703  77982.000000  0    1541712.477  -3462250.070   5742307.351
10 0 59703  78102.000000  0    1006751.548  -2852697.995   6178517.202
10 0 59703  78222.000000  0     465407.192  -2183933.186   6506117.030
10 0 59703  78342.000000  0     -71935.626  -1467618.758   6719381.380
10 0 59703  78462.000000  0    -595180.212   -716418.117   6814585.513
10 0 59703  78582.000000  0   -1094706.644     56230.557   6790066.944
10 0 59703  78702.000000  0   -1561547.938    836354.623   6646252.388
10 0 59703  78822.000000  0   -1987550.501   1609698.936   6385650.574
10 0 59703  78942.000000  0   -2365516.965   2361985.327   6012811.299
10 0 59703  79062.000000  0   -2689328.740   3079176.349   5534250.992
10 0 59703  79182.000000  0   -2954046.898   3747738.946   4958345.353
10 0 59703  79302.000000  0   -3155990.402   4354903.845   4295189.274
10 0 59703  79422.000000  0   -3292788.511   4888915.513   3556424.632
10 0 59703  79542.000000  0   -3363406.538   5339267.302   2755038.121
10 0 59703  79662.000000  0   -3368143.730   5696915.387   1905131.953
10 0 59703  79782.000000  0   -3308603.737   5954465.764   1021672.286
10 0 59703  79902.000000  0   -3187637.926   6106331.887    120220.794
10 0 59703  80022.000000  0   -3009262.793   6148857.744   -783347.818
10 0 59703  80142.000000  0   -2778553.942   6080401.492  -1673135.646
10 0 59703  80262.000000  0   -2501517.032   5901376.646  -2533512.434
10 0 59703  80382.000000  0   -2184940.067   5614249.628  -3349395.669
10 0 59703  80502.000000  0   -1836233.811   5223499.483  -4106517.014
10 0 59703  80622.000000  0   -1463263.077   4735537.055  -4791671.333
10 0 59703  80742.000000  0   -1074173.775   4158588.716  -5392941.307
10 0 59703  80862.000000  0    -677219.009   3502548.679  -5899897.493
10 0 59703  80982.000000  0    -280587.272   2778800.851  -6303770.456
10 0 59703  81102.000000  0     107762.843   2000014.873  -6597590.698
10 0 59703  81222.000000  0     480257.475   1179923.202  -6776297.588
10 0 59703  81342.000000  0     829850.800    333080.611  -6836818.222
10 0 59703  81462.000000  0    1150154.823   -525389.942  -6778114.310
10 0 59703  81582.000000  0    1435552.667  -1380061.954  -6601196.769
10 0 59703  81702.000000  0    1681294.444  -2215474.842  -6309109.360
10 0 59703  81822.000000  0    1883575.653  -3016406.504  -5906882.923
10 0 59703  81942.000000  0    2039596.216  -3768147.274  -5401459.410
10 0 59703  82062.000000  0    2147599.234  -4456771.441  -4801582.412
10 0 59703  82182.000000  0    2206888.229  -5069396.809  -4117655.611
10 0 59703  82302.000000  0    2217823.033  -5594430.947  -3361573.308
10 0 59703  82422.000000  0    2181793.701  -6021799.803  -2546521.895
10 0 59703  82542.000000  0    2101172.567  -6343152.462  -1686754.772
10 0 59703  82662.000000  0    1979244.023  -6552035.301   -797343.616
10 0 59703  82782.000000  0    1820117.002  -6644032.053    106089.485
10 0 59703  82902.000000  0    1628617.521  -6616861.712   1007653.352
10 0 59703  83022.000000  0    1410167.094  -6470437.491   1891474.381
10 0 59703  83142.000000  0    1170648.254  -6206879.323   2741987.248
10 0 59703  83262.000000  0     916261.160  -5830480.533   3544216.657
10 0 59703  83382.000000  0     653374.991  -5347632.357   4284046.946
10 0 59703  83502.000000  0     388378.577  -4766707.512   4948473.540
10 0 59703  83622.000000  0     127532.804  -4097905.620   5525832.515
10 0 59703  83742.000000  0    -123170.067  -3353063.933   6006003.473
10 0 59703  83862.000000  0    -358137.688  -2545437.963   6380582.058
10 0 59703  83982.000000  0    -572297.536  -1689459.513   6643019.342
10 0 59703  84102.000000  0    -761202.462   -800476.503   6788730.426
10 0 59703  84222.000000  0    -921120.528    105523.717   6815170.923
10 0 59703  84342.000000  0   -1049107.788   1012202.452   6721878.793
10 0 59703  84462.000000  0   -1143061.949   1903163.847   6510481.607
10 0 59703  84582.000000  0   -1201756.656   2762250.666   6184669.940
10 0 59703  84702.000000  0   -1224856.514   3573837.668   5750137.087
10 0 59703  84822.000000  0   -1212912.002   4323118.086   5214484.884
10 0 59703  84942.000000  0   -1167334.052   4996378.300   4587097.375
10 0 59703  85062.000000  0   -1090349.862   5581256.761   3878981.477
10 0 59703  85182.000000  0    -984939.128   6066978.698   3102576.956
10 0 59703  85302.000000  0    -854754.979   6444565.523   2271540.927
10 0 59703  85422.000000  0    -704027.244   6707011.990   1400503.611
10 0 59703  85542.000000  0    -537451.503   6849423.100    504805.310
10 0 59703  85662.000000  0    -360067.546   6869110.617   -399780.480
10 0 59703  85782.000000  0    -177129.957   6765646.423  -1297334.068
10 0 59703  85902.000000  0       6025.616   6540867.842  -2172080.251
10 0 59703  86022.000000  0     184115.982   6198836.233  -3008672.177
10 0 59703  86142.000000  0     352041.258   5745753.911  -3792464.232
10 0 59703  86262.000000  0     505010.539   5189840.151  -4509769.642
10 0 59703  86382.000000  0     638659.019   4541169.513  -5148097.025
10 0 59704    102.000000  0     749153.810   3811477.616  -5696361.727
10 0 59704    222.000000  0     833285.754   3013939.215  -6145069.579
10 0 59704    342.000000  0     888545.598   2162923.406  -6486470.463
10 0 59704    462.000000  0     913183.869   1273732.389  -6714680.058
10 0 59704    582.000000  0     906252.808    362328.196  -6825771.531
10 0 59704    702.000000  0     867630.572   -554949.663  -6817836.033
10 0 59704    822.000000  0     798026.716  -1461671.364  -6691010.870
10 0 59704    942.000000  0     698969.383  -2341602.691  -6447475.866
10 0 59704   1062.000000  0     572774.896  -3178987.778  -6091421.717
10 0 59704   1182.000000  0     422498.561  -3958828.731  -5628986.972
10 0 59704   1302.000000  0     251868.688  -4667153.404  -5068161.196
10 0 59704   1422.000000  0      65204.728  -5291268.310  -4418658.648
10 0 59704   1542.000000  0    -132680.200  -5819993.355  -3691761.198
10 0 59704   1662.000000  0    -336589.998  -6243872.217  -2900130.939
10 0 59704   1782.000000  0    -541067.447  -6555353.376  -2057596.080
10 0 59704   1902.000000  0    -740524.719  -6748938.423  -1178911.770
10 0 59704   2022.000000  0    -929379.207  -6821291.150   -279499.338
10 0 59704   2142.000000  0   -1102191.433  -6771304.183    624829.540
10 0 59704   2262.000000  0   -1253801.803  -6600121.787   1518157.884
10 0 59704   2382.000000  0   -1379462.638  -6311117.616   2384752.639
10 0 59704   2502.000000  0   -1474961.507  -5909826.697   3209351.062
10 0 59704   2622.000000  0   -1536732.663  -5403833.870   3977437.504
10 0 59704   2742.000000  0   -1561953.086  -4802621.275   4675503.413
10 0 59704   2862.000000  0   -1548622.414  -4117381.833   5291285.820
10 0 59704   2982.000000  0   -1495624.861  -3360801.834   5813982.989
10 0 59704   3102.000000  0   -1402770.575  -2546815.620   6234440.317
10 0 59704   3222.000000  0   -1270815.643  -1690342.286   6545303.572
10 0 59704   3342.000000  0   -1101462.062   -807009.226   6741141.563
10 0 59704   3462.000000  0    -897338.088     87135.429   6818535.661
10 0 59704   3582.000000  0    -661958.193    975914.085   6776135.372
10 0 59704   3702.000000  0    -399662.308   1843311.886   6614681.041
10 0 59704   3822.000000  0    -115535.826   2673764.954   6336991.619
10 0 59704   3942.000000  0     184688.031   3452439.547   5947918.328
10 0 59704   4062.000000  0     494741.417   4165499.031   5454265.167
10 0 59704   4182.000000  0     807949.659   4800353.845   4864675.781
10 0 59704   4302.000000  0    1117371.822   5345890.574   4189487.857
10 0 59704   4422.000000  0    1415949.220   5792673.872   3440555.867
10 0 59704   4542.000000  0    1696661.952   6133120.244   2631048.546
10 0 59704   4662.000000  0    1952689.707   6361638.067   1775213.694
10 0 59704   4782.000000  0    2177568.539   6474726.267    888122.493
10 0 59704   4902.000000  0    2365344.041   6471030.730    -14603.501
10 0 59704   5022.000000  0    2510714.463   6351357.661   -917074.972
10 0 59704   5142.000000  0    2609161.506   6118644.444  -1803422.550
10 0 59704   5262.000000  0    2657065.553   5777887.980  -2658083.254
10 0 59704   5382.000000  0    2651802.089   5336032.669  -3466080.063
10 0 59704   5502.000000  0    2591816.757   4801819.794  -4213288.122
10 0 59704   5622.000000  0    2476676.983   4185603.982  -4886680.597
10 0 59704   5742.000000  0    2307099.981   3499142.650  -5474550.617
10 0 59704   5862.000000  0    2084957.593   2755364.146  -5966706.720
10 0 59704   5982.000000  0    1813257.566   1968118.531  -6354639.644
10 0 59704   6102.000000  0    1496102.284   1151917.429  -6631657.238
10 0 59704   6222.000000  0    1138627.050    321668.353  -6792989.261
10 0 59704   6342.000000  0     746916.676   -507593.570  -6835861.570
99
